AL MUNTHER              
1 63240U 25052AG  26068.64540749  .00017933  00000+0  65015-3 0  9992
2 63240  97.4001 323.9152 0008027 130.7043 229.4895 15.28381521 54798
STARLINK-36504          
1 67462U 26008T   26068.43399071  .00032097  00000+0  11701-2 0  9991
2 67462  43.0004 206.6155 0002901 297.7687  62.2870 15.27598745  9536
